STARLINK-34970          
1 65450U 25194S   25262.58339120 -.01931723  00000+0 -26094-1 0  9998
2 65450  97.6024 114.3176 0002120  82.2286 148.2171 15.60998729  3087
STARLINK-35039          
1 65451U 25194T   25262.58339120 -.01924873  00000+0 -25996-1 0  9997
2 65451  97.6023 114.3189 0002059  77.7644 154.6052 15.60993065  3097
STARLINK-35084          
1 65452U 25194U   25262.58339120 -.01927787  00000+0 -26039-1 0  9994
2 65452  97.6021 114.3196 0001998  86.4856 147.8046 15.60995246  3031
STARLINK-34988          
1 65453U 25194V   25262.58339120  .00409728  68424-4  11042-2 0  9990
2 65453  97.5965 114.5357 0000414   0.3459   1.3524 15.94341500  3080
STARLINK-35059          
1 65454U 25194W   25257.94998934  .00367319  00000+0  16140-2 0  9993
2 65454  97.5984 109.2913 0001680  59.5231 300.6204 15.83637137  3083
STARLINK-34728          
1 65455U 25194X   25262.58339120 -.01991603  00000+0 -26990-1 0  9991
2 65455  97.6030 114.3218 0001645  88.8195 153.1441 15.61027061  3086
STARLINK-35005          
1 65456U 25194Y   25262.58339120 -.01984859  00000+0 -26893-1 0  9999
2 65456  97.6031 114.3209 0001633  90.1844 149.8623 15.61020557  3089
STARLINK-35076          
1 65457U 25194Z   25262.58339120 -.01918315  00000+0 -25897-1 0  9997
2 65457  97.6026 114.3252 0002146  84.0714 159.8225 15.60991189  3097
STARLINK-34784          
1 65458U 25195A   25262.58339120 -.01600033  00000+0 -20573-1 0  9990
2 65458  53.1601 337.7831 0001103  78.0001 103.0130 15.61674281  3045
STARLINK-34867          
1 65459U 25195B   25262.58339120  .00160357  00000+0  18054-2 0  9990
2 65459  53.1605 337.7801 0000992  16.4837 166.3851 15.61547928  3044
STARLINK-34850          
1 65460U 25195C   25262.58339120 -.01601744  00000+0 -20597-1 0  9999
2 65460  53.1598 337.7755 0001310  61.3045 123.5437 15.61673544  3049
STARLINK-35159          
1 65461U 25195D   25262.58339120 -.01602906  00000+0 -20612-1 0  9999
2 65461  53.1599 337.7713 0001354  60.6319 126.1319 15.61674724  3093
STARLINK-35180          
1 65462U 25195E   25262.58339120 -.01602496  00000+0 -20607-1 0  9998
2 65462  53.1601 337.7672 0001334  59.9539 128.7282 15.61673677  3043
STARLINK-35111          
1 65463U 25195F   25262.58339120 -.01599690  00000+0 -20566-1 0  9994
2 65463  53.1602 337.7633 0001385  60.9572 129.6411 15.61673221  3091
STARLINK-35107          
1 65464U 25195G   25262.58339120 -.01599672  00000+0 -20566-1 0  9995
2 65464  53.1603 337.7588 0001388  60.5734 131.9410 15.61673607  3094
STARLINK-35169          
1 65465U 25195H   25262.58339120 -.01602357  00000+0 -20604-1 0  9994
2 65465  53.1603 337.7510 0001367  60.5797 135.7676 15.61675028  3091
STARLINK-35027          
1 65466U 25195J   25262.58339120 -.01634562  00000+0 -21059-1 0  9993
2 65466  53.1660 337.7473 0001340  69.9593 128.3020 15.61692633  3048
STARLINK-34816          
1 65467U 25195K   25262.58339120 -.01637463  00000+0 -21103-1 0  9997
2 65467  53.1661 337.7435 0001308  70.1600 130.0193 15.61691294  3048
STARLINK-35033          
1 65468U 25195L   25262.58339120 -.01637908  00000+0 -21110-1 0  9990
2 65468  53.1663 337.7316 0001232  66.5701 139.3571 15.61691544  3046
STARLINK-34924          
1 65469U 25195M   25262.58339120 -.01634625  00000+0 -21065-1 0  9993
2 65469  53.1662 337.7270 0001265  67.2700 140.5775 15.61687581  3044
STARLINK-34829          
1 65470U 25195N   25262.58339120 -.01598971  00000+0 -20557-1 0  9993
2 65470  53.1604 337.7554 0001347  62.7025 131.7297 15.61672593  3046
STARLINK-34888          
1 65471U 25195P   25262.58339120 -.01639657  00000+0 -21134-1 0  9993
2 65471  53.1664 337.7390 0001279  69.9290 132.1655 15.61692146  3047
STARLINK-34799          
1 65472U 25195Q   25262.58339120 -.01636087  00000+0 -21084-1 0  9992
2 65472  53.1663 337.7346 0001216  68.6411 135.3712 15.61690205  3043
STARLINK-34762          
1 65473U 25195R   25262.58339120 -.01597395  00000+0 -20534-1 0  9990
2 65473  53.1599 337.7186 0001427  62.8027 148.8809 15.61672084  3048
STARLINK-34998          
1 65474U 25195S   25262.58339120 -.01596246  00000+0 -20518-1 0  9997
2 65474  53.1601 337.7145 0001426  62.2766 151.3247 15.61670676  2938
STARLINK-34832          
1 65475U 25195T   25262.58339120 -.01597529  00000+0 -20537-1 0  9994
2 65475  53.1601 337.7223 0001367  62.5131 147.2550 15.61671071  3043
STARLINK-35098          
1 65476U 25195U   25262.58339120 -.01602919  00000+0 -20612-1 0  9999
2 65476  53.1602 337.7107 0001311  66.8259 148.6914 15.61675080  3091
STARLINK-35071          
1 65477U 25195V   25262.58339120 -.01603258  00000+0 -20617-1 0  9992
2 65477  53.1603 337.7064 0001361  66.0295 151.4044 15.61674774  3097
STARLINK-35093          
1 65478U 25195W   25262.58339120 -.01635408  00000+0 -21071-1 0  9990
2 65478  53.1675 337.6986 0001403  76.0299 145.2350 15.61692418  3097
STARLINK-35096          
1 65479U 25195X   25262.58339120 -.01603838  00000+0 -20625-1 0  9997
2 65479  53.1604 337.6943 0001341  65.6366 157.5470 15.61675823  3048
STARLINK-35040          
1 65480U 25195Y   25262.58339120 -.01513491  00000+0 -11729-1 0  9999
2 65480  53.1585 337.5307 0000809  86.0890 217.4372 15.74269762  3095
STARLINK-35042          
1 65481U 25195Z   25262.58339120 -.01631808  00000+0 -21018-1 0  9995
2 65481  53.1674 337.7025 0001421  78.8563 140.4922 15.61692090  3097
STARLINK-35038          
1 65482U 25195AA  25262.58339120 -.01628393  00000+0 -12421-1 0  9999
2 65482  53.1585 337.5266 0001044  77.5117 227.8615 15.74356200  3099
STARLINK-35037          
1 65483U 25195AB  25262.58339120 -.01634042  00000+0 -12466-1 0  9997
2 65483  53.1585 337.5233 0001132  79.8381 227.4466 15.74362228  3097
STARLINK-35089          
1 65484U 25195AC  25262.58339120 -.01633878  00000+0 -12465-1 0  9993
2 65484  53.1583 337.5152 0001140  58.3401 252.7794 15.74360156  3093
STARLINK-35143          
1 65485U 25195AD  25262.58339120 -.01641655  00000+0 -12530-1 0  9999
2 65485  53.1584 337.5189 0001005  75.0183 234.1851 15.74365849  3045
SHIYAN-29               
1 65486U 25196A   25262.59422479 -.00000277  00000+0  00000+0 0  9996
2 65486  28.5255  21.9390 0089802 131.1822 210.7449  0.98869279   169
CZ-3C R/B               
1 65487U 25196B   25251.41819693  .00025655  00000+0  33348-2 0  9994
2 65487  28.4934  20.6057 6976947 130.0484 315.6750  2.68841397   106
2025-197A               
1 65488U 25197A   25251.16062515  .00005816  00000+0  26729-3 0  9994
2 65488  97.4119  76.9324 0014067 275.9123  84.0509 15.20666998   415
2025-197B               
1 65489U 25197B   25251.16057737  .00005565  00000+0  25580-3 0  9990
2 65489  97.4117  76.9325 0013220 277.6459  82.3275 15.20695336   404
2025-197C               
1 65490U 25197C   25251.16005615  .00005255  00000+0  23957-3 0  9992
2 65490  97.4119  76.9333 0014092 282.0844  77.8812 15.20990825   398
2025-197D               
1 65491U 25197D   25251.15999517  .00006845  00000+0  31070-3 0  9996
2 65491  97.4117  76.9332 0013873 282.8608  77.1078 15.21031443   398
STARLINK-35226          
1 65492U 25198A   25262.44512282  .00309781  00000+0  16061-2 0  9999
2 65492  53.1538 359.1103 0001600 337.1882  22.9069 15.79629033  2223
STARLINK-35242          
1 65493U 25198B   25262.50591430  .00555296  12291-3  21882-2 0  9999
2 65493  53.1545 358.7790 0029027 248.4194 111.3737 15.85621629  2238
STARLINK-35223          
1 65494U 25198C   25262.25323921  .01115327  00000+0  43315-2 0  9994
2 65494  53.1528   0.0467 0017781 211.1722 148.8249 15.84082215  2195
STARLINK-34446          
1 65495U 25198D   25262.57048704  .00329642  00000+0  15587-2 0  9999
2 65495  53.1542 358.4678 0011379 162.6246 197.5169 15.81510135  2246
STARLINK-35212          
1 65496U 25198E   25261.55816175  .00604442  00000+0  26599-2 0  9991
2 65496  53.1541   3.5353 0003928 304.4325  55.6327 15.82420369  2081
STARLINK-34455          
1 65497U 25198F   25261.81138178  .00555010  00000+0  25566-2 0  9990
2 65497  53.1539   2.2691 0002209 234.0902 125.9917 15.81561205  2125
STARLINK-35203          
1 65498U 25198G   25261.74599368  .01130096  00000+0  41271-2 0  9990
2 65498  53.1534   2.5723 0015960 246.1167 113.8185 15.84986704  2115
STARLINK-35166          
1 65499U 25198H   25261.55586869  .00535721  00000+0  23837-2 0  9993
2 65499  53.1547   3.5195 0004167 259.9910 100.0643 15.82357168  2086
STARLINK-35207          
1 65500U 25198J   25261.55721043  .00588340  00000+0  26013-2 0  9995
2 65500  53.1542   3.5286 0003826 297.4727  62.5907 15.82360449  2080
STARLINK-35140          
1 65501U 25198K   25261.74595916  .00541917  00000+0  24300-2 0  9991
2 65501  53.1542   2.5713 0003711 271.9875  88.0723 15.82176449  2117
STARLINK-35114          
1 65502U 25198L   25262.56796787  .00967925  00000+0  37478-2 0  9993
2 65502  53.1537 358.4532 0024109 221.1081 138.8127 15.83927913  2241
STARLINK-35126          
1 65503U 25198M   25261.55502577  .00520620  00000+0  23331-2 0  9994
2 65503  53.1553   3.5132 0007562 218.7108 141.3374 15.82225084  2084
STARLINK-35182          
1 65504U 25198N   25261.55548542  .00483479  00000+0  21204-2 0  9994
2 65504  53.1545   3.5164 0006264 295.3754  64.6621 15.82790515  2085
STARLINK-35072          
1 65505U 25198P   25262.56464219  .00411805  00000+0  17295-2 0  9994
2 65505  53.1556 358.4292 0021749 194.7202 165.3191 15.83583675  2244
STARLINK-35184          
1 65506U 25198Q   25261.55411647  .00535591  00000+0  23875-2 0  9990
2 65506  53.1547   3.5069 0005126 297.4230  62.6271 15.82315775  2081
STARLINK-35163          
1 65507U 25198R   25262.56342611  .00591967  00000+0  24593-2 0  9994
2 65507  53.1537 358.4211 0022450 206.6986 153.2884 15.83365984  2244
STARLINK-35119          
1 65508U 25198S   25262.56422200  .00555642  00000+0  23911-2 0  9991
2 65508  53.1543 358.4258 0018895 195.7306 164.3133 15.82810991  2247
